TEN-KOH                 
1 43677U 18084G   26043.06642359  .00004280  00000+0  32897-3 0  9993
2 43677  98.0752 230.1840 0009604 177.1572 182.9708 15.02272807397375
DIWATA-2B               
1 43678U 18084H   26043.23797375  .00001015  00000+0  87238-4 0  9995
2 43678  98.1061 234.2289 0009172 205.7568 154.3198 14.99829867397482
STARS-AO                
1 43679U 18084J   26042.55708260  .00007820  00000+0  41807-3 0  9996
2 43679  98.0633 248.8155 0001208 211.0452 149.0708 15.15386299398434
AUTCUBE 2               
1 43681U 18084K   26043.02138368  .00005499  00000+0  35132-3 0  9992
2 43681  98.0801 242.5556 0010234 104.2501 255.9864 15.09053824398042
METOP-C                 
1 43689U 18087A   26043.20009427  .00000128  00000+0  78265-4 0  9995
2 43689  98.6823 104.9979 0001830 135.4346 224.6979 14.21511920377074
ES'HAIL 2               
1 43700U 18090A   26043.26498530  .00000152  00000+0  00000+0 0  9990
2 43700   0.0136 100.2375 0002514 269.5999 253.6285  1.00273866 26423
MOHAMMED VI-B           
1 43717U 18095A   26043.26092991  .00000867  00000+0  12993-3 0  9995
2 43717  97.9470 117.3895 0001327  82.4657 277.6704 14.77081846389749
HYSIS                   
1 43719U 18096A   26043.29172214  .00001901  00000+0  26693-3 0  9990
2 43719  97.9996 110.9371 0001336 110.2797 249.8558 14.78593533388960
COSMOS 2530 (RODNIK-S *)
1 43751U 18097A   26043.28344175  .00000005  00000+0 -34851-4 0  9994
2 43751  82.5161 299.8254 0019293 310.8777  49.0631 12.42876892326778
COSMOS 2531 (RODNIK-S *)
1 43752U 18097B   26043.22838138 -.00000127  00000+0 -98493-3 0  9993
2 43752  82.5208 300.8757 0016729 330.6558  29.3581 12.42907513326781
COSMOS 2532 (RODNIK-S *)
1 43753U 18097C   26043.25632037 -.00000110  00000+0 -86654-3 0  9995
2 43753  82.5150 299.7012 0018120 332.4880  27.5239 12.42903893326757
MINXSS-2                
1 43758U 18099A   26043.17051961  .00033233  00000+0  87082-3 0  9990
2 43758  97.4688 116.5083 0008351   2.0029 358.1248 15.38587704394853
SIRION PATHFINDER-2     
1 43759U 18099B   26042.66650591  .00005882  00000+0  33449-3 0  9995
2 43759  97.4453  94.7049 0009433  24.3969 335.7707 15.13209558393632
AISTECHSAT 2            
1 43768U 18099L   26043.10547983  .00006629  00000+0  36872-3 0  9998
2 43768  97.4489  93.8845 0005357  29.6444 330.5090 15.13983771393344
FOX-1CLIFF (AO-95)      
1 43770U 18099N   26043.10258127  .00014080  00000+0  58790-3 0  9993
2 43770  97.4577 103.9733 0010476  72.3218 287.9162 15.23707154394151
2018-099Q               
1 43772U 18099Q   26043.16342082  .00075641  00000+0  11983-2 0  9997
2 43772  97.4366 117.5546 0002458 281.4246  78.6731 15.53153027395084
RANGE-A                 
1 43773U 18099R   26043.03332972  .00005341  00000+0  31287-3 0  9991
2 43773  97.4162  89.2616 0012030  64.8241 295.4236 15.12157075393570
SNUSAT-2                
1 43782U 18099AA  26043.12246203  .00009832  00000+0  46328-3 0  9993
2 43782  97.4253  98.5026 0011052  21.7639 338.4063 15.19654951394024
SNUGLITE                
1 43784U 18099AC  26043.13928498  .00013692  00000+0  56560-3 0  9997
2 43784  97.4070  98.8041 0003409  37.3548 322.7926 15.24118418394250
ITASAT                  
1 43786U 18099AE  26043.12305807  .00008018  00000+0  40516-3 0  9991
2 43786  97.4229  97.1712 0014461  71.7950 288.4856 15.17239388393930
EAGLET-I                
1 43790U 18099AJ  26043.07476965  .00005189  00000+0  30668-3 0  9997
2 43790  97.4433  96.0334 0012714  62.5980 297.6542 15.11845017393424
ESEO                    
1 43792U 18099AL  26043.10480703  .00001998  00000+0  14931-3 0  9997
2 43792  97.4170  85.7705 0013580  47.9645 312.2734 15.03808342393000
THEA                    
1 43796U 18099AQ  26043.18642446  .00021793  00000+0  74180-3 0  9990
2 43796  97.4608 111.9960 0008087  18.3769 341.7762 15.30403012393542
ASTROCAST 0.1           
1 43798U 18099AS  26043.16672993  .00031473  00000+0  75632-3 0  9999
2 43798  97.4521 118.4837 0004958 315.3427  44.7420 15.41264329395122
JY1SAT (JO-97)          
1 43803U 18099AX  26043.11055638  .00019986  00000+0  70414-3 0  9990
2 43803  97.4314 105.7988 0006000   7.0928 353.0396 15.29312136394488
SUOMI-100               
1 43804U 18099AY  26043.10264305  .00014304  00000+0  57046-3 0  9998
2 43804  97.4383 104.1328 0010504   9.6934 350.4505 15.25246786394335
AL-FARABI 2             
1 43805U 18099AZ  26043.15552780  .00110209  00000+0  12903-2 0  9994
2 43805  97.4179 117.6973 0003489 293.4529  66.6362 15.61175775395361
CENTAURI-1              
1 43809U 18099BD  26043.09960898  .00007477  00000+0  40386-3 0  9993
2 43809  97.4419  97.5154 0015532  46.8502 313.4026 15.14893991393556
GLOBAL-2                
1 43812U 18099BG  26043.08550606  .00003144  00000+0  20912-3 0  9998
2 43812  97.3743  84.7586 0004986 210.3220 149.7721 15.07848227393053
SEAHAWK-1               
1 43820U 18099BQ  26043.13045096  .00010412  00000+0  47915-3 0  9993
2 43820  97.4158  97.6098 0009348  37.2044 322.9837 15.20469770393512
SAUDISAT 5A             
1 43831U 18102A   26043.29406198  .00006895  00000+0  26595-3 0  9992
2 43831  97.3250 107.3023 0009196 208.4616 151.6122 15.26581092396617
SAUDISAT 5B             
1 43833U 18102C   26043.27108409  .00007271  00000+0  27756-3 0  9995
2 43833  97.3345 110.1270 0009841 211.7647 148.3000 15.26901308396724
2018-102D               
1 43834U 18102D   26043.26447549  .00045766  00000+0  70997-3 0  9992
2 43834  97.3529 128.0868 0005573 158.6266 201.5221 15.53848927397774
ISAT                    
1 43879U 18111D   26043.21412840  .00063359  00000+0  12042-2 0  9996
2 43879  97.5902 330.6444 0008263  55.6457 304.5574 15.48011643391734
UWE-4                   
1 43880U 18111E   26043.25340904  .00036480  00000+0  96484-3 0  9991
2 43880  97.5854 326.6552 0011601  61.4140 298.8270 15.38247867391524
D-STAR ONE (SPARROW)    
1 43881U 18111F   26042.77073461  .00064946  00000+0  11078-2 0  9992
2 43881  97.6102 334.3480 0008057  84.3051 275.9119 15.51094784391806
JILIN-1 09              
1 43943U 19005B   26043.28970824  .00007102  00000+0  33997-3 0  9996
2 43943  97.4726 139.4686 0003373 147.1264 213.0181 15.19261575390176
JILIN-1 10              
1 43946U 19005E   26043.25577234  .00008458  00000+0  35131-3 0  9991
2 43946  97.4750 142.2583 0008287   7.5433 352.5928 15.24042997390270
EGYPTSAT-A (MISRSAT-A)  
1 44047U 19008A   26043.29752828  .00000191  00000+0  37948-4 0  9990
2 44047  98.0204 109.8637 0001189 102.7926 257.3414 14.72362910374863
EMISAT                  
1 44078U 19018A   26043.24995950  .00000223  00000+0  78686-4 0  9995
2 44078  98.4832 102.6420 0017925 231.6785 128.2794 14.43673793362034
JILIN-1 GAOFEN 3A       
1 44312U 19032C   26043.21428894  .00015939  00000+0  55589-3 0  9993
2 44312  44.9778 323.2057 0004832 318.6394  41.4123 15.29499355368686
WT 1A                   
1 44315U 19032F   26042.93881942  .00126994  00000+0  11138-2 0  9996
2 44315  44.9762 228.3300 0007925 261.8082  98.1917 15.67720495369806
WT 1B                   
1 44316U 19032G   26043.28572509  .00014394  00000+0  58815-3 0  9996
2 44316  44.9795  21.2964 0010677 272.4536  87.5123 15.24285540368001
PROX-1                  
1 44339U 19036A   26041.73500466  .00014478  00000+0  15402-2 0  9993
2 44339  23.9949 236.8211 0007308  13.1265 346.9423 14.87168441354603
NPSAT1                  
1 44340U 19036B   26043.14014369  .00007132  00000+0  10453-2 0  9994
2 44340  23.9997 311.3526 0007906 239.3983 120.5733 14.73148082354029
FORMOSAT 7-3            
1 44343U 19036E   26043.10028274  .00006421  00000+0  37820-3 0  9991
2 44343  24.0002 318.7679 0000475 247.4836 112.5617 15.08638300364324
FORMOSAT 7-1            
1 44349U 19036L   26041.73438912  .00001564  00000+0  11043-3 0  9990
2 44349  23.9957 164.5029 0001447 130.9515 229.1111 14.95833926365694
FORMOSAT 7-4            
1 44350U 19036M   26042.69032329  .00003377  00000+0  26879-3 0  9997
2 44350  23.9965 220.1674 0001172 137.2842 222.7750 14.95840204365255
FORMOSAT 7-2            
1 44351U 19036N   26042.84630233  .00003447  00000+0  27486-3 0  9996
2 44351  23.9971 273.4369 0000785 142.0203 218.0353 14.95850380364790
FORMOSAT 7-6            
1 44353U 19036Q   26043.24693950  .00003842  00000+0  30927-3 0  9991
2 44353  23.9982  91.5596 0001582  87.6691 272.3991 14.95856769363085
FORMOSAT 7-5            
1 44358U 19036V   26043.29097876  .00003980  00000+0  32134-3 0  9991
2 44358  24.0004  30.0104 0000635 139.8338 220.2210 14.95857575363628
METEOR-M2 2             
1 44387U 19038A   26043.20478574  .00000478  00000+0  22680-3 0  9998
2 44387  98.9050  28.7128 0002012  46.4771 313.6575 14.24324581343500
COSMOS 2535             
1 44421U 19039A   26043.24954269  .00001988  00000+0  20328-3 0  9996
2 44421  97.5929  76.1185 0006933 269.3808  90.6617 14.91618408358011
GLOBAL-4                
1 44499U 19054E   26042.91716276  .00037830  00000+0  58964-3 0  9997
2 44499  45.0068 233.1203 0007364 219.7574 140.2780 15.53246454360813
ZY-1 02D                
1 44528U 19059A   26043.29810818  .00000226  00000+0  93160-4 0  9991
2 44528  98.3363 109.1177 0002389 115.0010 245.1424 14.35438917336428
TAURUS-1 (JINNIUZUO 1)  
1 44530U 19059C   26043.24686374  .00008440  00000+0  14028-2 0  9997
2 44530  98.6262 200.5623 0008207 342.1161  17.9753 14.70367121340274
ZHUHAI-1 03B            
1 44536U 19060C   26043.22729685  .00038754  00000+0  78811-3 0  9998
2 44536  97.5361 195.0929 0009469  56.9982 303.2176 15.46152691356968
ZHUHAI-1 03C            
1 44537U 19060D   26043.25823839  .00087741  00000+0  84203-3 0  9990
2 44537  97.5503 203.5915 0010597   2.1724 357.9580 15.66275053357492
ZHUHAI-1 03D            
1 44538U 19060E   26043.24358512  .00033674  00000+0  78363-3 0  9997
2 44538  97.5207 188.3261 0009191  42.9980 317.1983 15.42188372356778
